[{"OBJECT_NAME":"STARLINK-2565","OBJECT_ID":"2021-036E","EPOCH":"2026-03-09T07:12:35.222688","MEAN_MOTION":15.06407119,"ECCENTRICITY":0.0001513,"INCLINATION":53.0543,"RA_OF_ASC_NODE":98.3658,"ARG_OF_PERICENTER":91.9906,"MEAN_ANOMALY":268.1256,"EPHEMERIS_TYPE":0,"CLASSIFICATION_TYPE":"U","NORAD_CAT_ID":48280,"ELEMENT_SET_NO":999,"REV_AT_EPOCH":26804,"BSTAR":0.00020570937,"MEAN_MOTION_DOT":2.784e-5,"MEAN_MOTION_DDOT":0},{"OBJECT_NAME":"YUNYAO-1 47","OBJECT_ID":"2025-059E","EPOCH":"2026-03-09T22:46:15.708288","MEAN_MOTION":15.10508558,"ECCENTRICITY":0.00172664,"INCLINATION":97.6066,"RA_OF_ASC_NODE":250.9227,"ARG_OF_PERICENTER":135.6694,"MEAN_ANOMALY":224.5922,"EPHEMERIS_TYPE":0,"CLASSIFICATION_TYPE":"U","NORAD_CAT_ID":63348,"ELEMENT_SET_NO":999,"REV_AT_EPOCH":5331,"BSTAR":0.00029014568,"MEAN_MOTION_DOT":4.732e-5,"MEAN_MOTION_DDOT":0}]
